[
    {
        "Altitude(m)": 624792.8070257589,
        "Argument of Periapsis(deg)": 0.0,
        "Eccentricity": 0.0,
        "Inclination(deg)": 60.0,
        "Latitude(deg)": -59.1471935396598,
        "Longitude(deg)": -85.97360936516218,
        "Mean Anomaly(deg)": -98.18180000000002,
        "RAAN(deg)": 120.0,
        "Satellite Name": "Test1 544",
        "Satellite Number": 544,
        "Semi-Major Axis(m)": 6980739.136638005,
        "Time(s)": 0
    },
    {
        "Altitude(m)": 624842.1990065933,
        "Argument of Periapsis(deg)": 0.00010418945913296404,
        "Eccentricity": 0.0,
        "Inclination(deg)": 60.0,
        "Latitude(deg)": -59.289277249246844,
        "Longitude(deg)": -84.8441018589493,
        "Mean Anomaly(deg)": -97.56169385453816,
        "RAAN(deg)": 119.99957995086024,
        "Satellite Name": "Test1 544",
        "Satellite Number": 544,
        "Semi-Major Axis(m)": 6980739.136638005,
        "Time(s)": 10
    }
]